[
  {
    "Phone Number": "01443 831073",
    "Name": "A & JM Sheppard Ltd",
    "Address": "50 Commercial Street",
    "Postcode": "CF81 9BU"
  },
  {
    "Phone Number": "01443 831015",
    "Name": "Vida Rogers Ltd",
    "Address": "26 Commercial Street",
    "Postcode": "CF81 9BW"
  },
  {
    "Phone Number": "01495 244227",
    "Name": "Evans Pharmacy",
    "Address": "2 High Street",
    "Postcode": "NP11 5GR"
  },
  {
    "Phone Number": "01873 853207",
    "Name": "Boots the Chemists Ltd",
    "Address": "2 Cross Street",
    "Postcode": "NP7  5EH"
  },
  {
    "Phone Number": "01873 853219",
    "Name": "H Shackleton Ltd",
    "Address": "1 Nevill Street",
    "Postcode": "NP7  5AA"
  },
  {
    "Phone Number": "01873 854310",
    "Name": "H Shackleton Ltd",
    "Address": "24 Brecon Road",
    "Postcode": "NP7  5UG"
  },
  {
    "Phone Number": "01873 850702",
    "Name": "Lloyds Pharmacy",
    "Address": "Waitrose Stores",
    "Postcode": "NP7  9LL"
  },
  {
    "Phone Number": "01495 320189",
    "Name": "Boots the Chemists Ltd",
    "Address": "9 Church Street",
    "Postcode": "NP13 1DA"
  },
  {
    "Phone Number": "01495 212780",
    "Name": "Prichard T H & Son Ltd",
    "Address": "48 Church St",
    "Postcode": "NP13 1DB"
  },
  {
    "Phone Number": "01495 212368",
    "Name": "Prichard T H & Son Ltd",
    "Address": "Somerset St",
    "Postcode": "NP13 1XT"
  },
  {
    "Phone Number": "01495 214286",
    "Name": "Sunrise Pharma Ltd",
    "Address": "21/23 Commercial Rd",
    "Postcode": "NP13 2JA"
  },
  {
    "Phone Number": "01443 839983",
    "Name": "Bargoed Pharmacy",
    "Address": "9 Cardiff Road",
    "Postcode": "CF81 8WZ"
  },
  {
    "Phone Number": "01443 831160",
    "Name": "Boots the Chemists Ltd",
    "Address": "West Street",
    "Postcode": "CF81 8SB"
  },
  {
    "Phone Number": "01443 831007",
    "Name": "Hanbury Pharmacy",
    "Address": "18 Hanbury Road",
    "Postcode": "CF81 8QS"
  },
  {
    "Phone Number": "01443 831030",
    "Name": "Lewis Chemist",
    "Address": "2-3 Trafalgar Buildings",
    "Postcode": "CF81 8NX"
  },
  {
    "Phone Number": "01495 225208",
    "Name": "Boots the Chemists Ltd",
    "Address": "2 The Market Place",
    "Postcode": "NP12 1AU"
  },
  {
    "Phone Number": "01495 224875",
    "Name": "Mayberry Pharmacy Ltd",
    "Address": "175 High Street",
    "Postcode": "NP12 1AA"
  },
  {
    "Phone Number": "01495 224315",
    "Name": "Pearn's Pharmacies Ltd",
    "Address": "Oakdale",
    "Postcode": "NP12 0JU"
  },
  {
    "Phone Number": "01495 229268",
    "Name": "Pontllanfraith Pharmacy",
    "Address": "The Health Centre",
    "Postcode": "NP12 2YU"
  },
  {
    "Phone Number": "01443 830245",
    "Name": "Vida Rogers  Ltd",
    "Address": "23 High Street",
    "Postcode": "NP12 3UD"
  },
  {
    "Phone Number": "01443 830190",
    "Name": "Vida Rogers  Ltd",
    "Address": "Cefn Fforest",
    "Postcode": "NP12 3JX"
  },
  {
    "Phone Number": "01495 790594",
    "Name": "Dudley Taylor Pharmacies Limited",
    "Address": "Middle Coed Cae Road",
    "Postcode": "NP4  9AW"
  },
  {
    "Phone Number": "01495 790293",
    "Name": "Well Pharmacy",
    "Address": "14 Broad Street",
    "Postcode": "NP4  9ND"
  },
  {
    "Phone Number": "01495 290214",
    "Name": "Pritchard T H & Son Ltd",
    "Address": "103 High St",
    "Postcode": "NP13 3AE"
  },
  {
    "Phone Number": "01495 310338",
    "Name": "Wells Pharmacy",
    "Address": "44 Beaufort St",
    "Postcode": "NP23 4AG"
  },
  {
    "Phone Number": "01495 310258",
    "Name": "Williams John F H",
    "Address": "41 Beaufort St",
    "Postcode": "NP23 4AQ"
  },
  {
    "Phone Number": "01633 420436",
    "Name": "Well Pharmacy",
    "Address": "3 High Street",
    "Postcode": "NP18 1AZ"
  },
  {
    "Phone Number": "02920 855517",
    "Name": "Asda Pharmacy",
    "Address": "Pontygwindy Road",
    "Postcode": "CF83 3SX"
  },
  {
    "Phone Number": "029 20 888892",
    "Name": "Lansbury Chemists",
    "Address": "42 Maxton Court",
    "Postcode": "CF83 1QN"
  },
  {
    "Phone Number": "02920 830265",
    "Name": "Llanharan Pharmacy Ltd",
    "Address": "4 High Street",
    "Postcode": "CF83 4GY"
  },
  {
    "Phone Number": "02920 888262",
    "Name": "Lloyds Pharmacy",
    "Address": "Courthouse Medical Centre",
    "Postcode": "CF83 3GH"
  },
  {
    "Phone Number": "02920 882916",
    "Name": "Lloyds Pharmacy",
    "Address": "31 Tonyfelin Road",
    "Postcode": "CF83 1PA"
  },
  {
    "Phone Number": "02920 882914",
    "Name": "Mayberry Pharmacy Ltd",
    "Address": "40 Cardiff Road",
    "Postcode": "CF83 1JP"
  },
  {
    "Phone Number": "02920 830393",
    "Name": "Morris B L & P M",
    "Address": "19 Thomas Street",
    "Postcode": "CF83 4AU"
  },
  {
    "Phone Number": "02920 888008",
    "Name": "Nelson's Pharmacy",
    "Address": "4 Beddau Way",
    "Postcode": "CF83 2AX"
  },
  {
    "Phone Number": "02920 865661",
    "Name": "Sheppards Ltd",
    "Address": "Troed-y-Bryn Pharmacy",
    "Postcode": "CF83 2PX"
  },
  {
    "Phone Number": "02920 883138",
    "Name": "Superdrug Stores PLC",
    "Address": "6/12 Cardiff Road",
    "Postcode": "CF83 1JN"
  },
  {
    "Phone Number": "01633 440810",
    "Name": "The Handpost Ltd",
    "Address": "36 Commercial Road",
    "Postcode": "CF83 8PG"
  },
  {
    "Phone Number": "029 20 885172",
    "Name": "Well Pharmacy",
    "Address": "26 Church Street",
    "Postcode": "CF83 8EB"
  },
  {
    "Phone Number": "02920 862239",
    "Name": "Well Pharmacy",
    "Address": "36 High Street",
    "Postcode": "CF83 3LQ"
  },
  {
    "Phone Number": "029 20 869862",
    "Name": "Well Pharmacy",
    "Address": "Trethomas",
    "Postcode": "CF83 8GP"
  },
  {
    "Phone Number": "01291 420525",
    "Name": "Chappell Chemist Ltd",
    "Address": "28 Newport Road",
    "Postcode": "NP26 4BQ"
  },
  {
    "Phone Number": "01291 420316",
    "Name": "Richeld Pharmacy",
    "Address": "17 Newport Road",
    "Postcode": "NP26 4BG"
  },
  {
    "Phone Number": "01291 622042",
    "Name": "Boots the Chemists Ltd",
    "Address": "16-17 High Street",
    "Postcode": "NP16 5LQ"
  },
  {
    "Phone Number": "01291 622149",
    "Name": "Dudley Taylor Pharmacies Ltd",
    "Address": "45 - 47 Bulwark Road",
    "Postcode": "NP16 5JW"
  },
  {
    "Phone Number": "01291 622387",
    "Name": "Merrick P C",
    "Address": "12-13 Steep Street",
    "Postcode": "NP16 5PJ"
  },
  {
    "Phone Number": "01495 244617",
    "Name": "Mayberry's Pharmacy",
    "Address": "Main Street",
    "Postcode": "NP11 4PT"
  },
  {
    "Phone Number": "01633 483281",
    "Name": "Boots the Chemists Ltd",
    "Address": "10-14 The Mall",
    "Postcode": "NP44 1PX"
  },
  {
    "Phone Number": "01633 482897",
    "Name": "Lloyds Pharmacy",
    "Address": "Croesyceiliog",
    "Postcode": "NP44 2NR"
  },
  {
    "Phone Number": "01633 482471",
    "Name": "Lloyds Pharmacy",
    "Address": "3 New Street",
    "Postcode": "NP44 1EE"
  },
  {
    "Phone Number": "01633 483309",
    "Name": "Lloyds Pharmacy",
    "Address": "West Pontnewydd",
    "Postcode": "NP44 1HN"
  },
  {
    "Phone Number": "01633 484873",
    "Name": "Lloyds Pharmacy",
    "Address": "Fairwater",
    "Postcode": "NP44 4TA"
  },
  {
    "Phone Number": "01633 483446",
    "Name": "Lloyds Pharmacy",
    "Address": "Llanyravon",
    "Postcode": "NP44 8HS"
  },
  {
    "Phone Number": "01633 482663",
    "Name": "Pontnewydd Pharmacy",
    "Address": "8 Commercial Street",
    "Postcode": "NP44 1DZ"
  },
  {
    "Phone Number": "01633 483318",
    "Name": "Shil Pharmacy",
    "Address": "Leadon Court",
    "Postcode": "NP44 5TZ"
  },
  {
    "Phone Number": "01633 860915",
    "Name": "Your Local Boots Pharmacy",
    "Address": "25 Commercial Street",
    "Postcode": "NP44 3LR"
  },
  {
    "Phone Number": "01495 270328",
    "Name": "Evans Pharmacy",
    "Address": "118 Newport Road",
    "Postcode": "NP11 7LZ"
  },
  {
    "Phone Number": "01495 201001",
    "Name": "Cwmfelin Pharmacy",
    "Address": "52 Maindee Road",
    "Postcode": "NP11 7HR"
  },
  {
    "Phone Number": "01495 302159",
    "Name": "Boots the Chemists Ltd",
    "Address": "11 Market St",
    "Postcode": "NP23 6HL"
  },
  {
    "Phone Number": "01495 307709",
    "Name": "Lloyds Chemists Retail Ltd",
    "Address": "3/4 Market St",
    "Postcode": "NP23 6HJ"
  },
  {
    "Phone Number": "01495 304899",
    "Name": "Shackleton H & Co",
    "Address": "Cwm Hir Rd",
    "Postcode": "NP23 5PB"
  },
  {
    "Phone Number": "01495 305183",
    "Name": "Wells Pharmacy",
    "Address": "Bridge St",
    "Postcode": "NP23 6EY"
  },
  {
    "Phone Number": "01495 302032",
    "Name": "Wells Pharmacy",
    "Address": "James Street",
    "Postcode": "NP23 6HQ"
  },
  {
    "Phone Number": "01495 370273",
    "Name": "Wells Pharmacy",
    "Address": "Cwm",
    "Postcode": "NP23 6ST"
  },
  {
    "Phone Number": "01443 875400",
    "Name": "Lloyds Pharmacy",
    "Address": "Heol Penallta",
    "Postcode": "CF82 8FA"
  },
  {
    "Phone Number": "01873 830647",
    "Name": "J F H Williams",
    "Address": "Main Road",
    "Postcode": "NP7  0AU"
  },
  {
    "Phone Number": "01633 880170",
    "Name": "Magor Pharmacy",
    "Address": "The Square",
    "Postcode": "NP26 3HY"
  },
  {
    "Phone Number": "01633 681112",
    "Name": "Fred Taylor",
    "Address": "127 Marshfield Road",
    "Postcode": "CF3  2TU"
  },
  {
    "Phone Number": "01600 713119",
    "Name": "Boots the Chemists Ltd",
    "Address": "60 Monnow Street",
    "Postcode": "NP25 3EN"
  },
  {
    "Phone Number": "01600 713123",
    "Name": "D R Rosser",
    "Address": "12 Church Street",
    "Postcode": "NP25 3BU"
  },
  {
    "Phone Number": "01600 716746",
    "Name": "Superdrug Stores Plc",
    "Address": "43-47 Monnow Street",
    "Postcode": "NP25 3EF"
  },
  {
    "Phone Number": "01600 715955",
    "Name": "Well Pharmacy",
    "Address": "108 Monnow Street",
    "Postcode": "NP25 3EQ"
  },
  {
    "Phone Number": "01443 450240",
    "Name": "Sheppard A & J M Ltd",
    "Address": "14/16 Commercial Street",
    "Postcode": "CF46 6NF"
  },
  {
    "Phone Number": "01443 830741",
    "Name": "Sheppard A & J M Ltd",
    "Address": "White Rose Way",
    "Postcode": "NP24 6DF"
  },
  {
    "Phone Number": "01495 243456",
    "Name": "Lloyds Pharmacy",
    "Address": "2 Victoria Terrace",
    "Postcode": "NP11 4ET"
  },
  {
    "Phone Number": "01495 248919",
    "Name": "Pearn's Pharmacies Ltd",
    "Address": "4/5 Victoria Terrace",
    "Postcode": "NP11 4ET"
  },
  {
    "Phone Number": "01633 654810",
    "Name": "Asda Pharmacy",
    "Address": "Pencarn Way",
    "Postcode": "NP10 8XL"
  },
  {
    "Phone Number": "01633 895524",
    "Name": "Bassaleg Pharmacy",
    "Address": "Bassaleg",
    "Postcode": "NP10 8NN"
  },
  {
    "Phone Number": "01633 259170",
    "Name": "Boots the Chemists Ltd",
    "Address": "135A Caerleon Rd",
    "Postcode": "NP19 7FW"
  },
  {
    "Phone Number": "01633 258071",
    "Name": "Boots the Chemists Ltd",
    "Address": "136 Chepstow Rd",
    "Postcode": "NP19 8EG"
  },
  {
    "Phone Number": "01633 840513",
    "Name": "Boots the Chemists Ltd",
    "Address": "155-156 Commercial St",
    "Postcode": "NP20 1UE"
  },
  {
    "Phone Number": "01633 278647",
    "Name": "Boots UK Limited",
    "Address": "Spytty",
    "Postcode": "NP19 4QQ"
  },
  {
    "Phone Number": "01633 422597",
    "Name": "Candwr Brook Pharmacy",
    "Address": "Stokes Court",
    "Postcode": "NP18 1RY"
  },
  {
    "Phone Number": "01633 253999",
    "Name": "Handpost Pharmacy",
    "Address": "222 Stow Hill",
    "Postcode": "NP20 4HA"
  },
  {
    "Phone Number": "01633 264291",
    "Name": "JDS Evans Chemist",
    "Address": "Bellevue Terrace",
    "Postcode": "NP20 2LB"
  },
  {
    "Phone Number": "01633 854077",
    "Name": "Llanharan Pharmacy Limited",
    "Address": "Malpas",
    "Postcode": "NP20 6NE"
  },
  {
    "Phone Number": "01633 273180",
    "Name": "Lloyds Pharmacy",
    "Address": "14-15 Ringland Centre",
    "Postcode": "NP19 9HG"
  },
  {
    "Phone Number": "01633 223108",
    "Name": "Lloyds Pharmacy",
    "Address": "156 Mendalgief Road",
    "Postcode": "NP20 2NT"
  },
  {
    "Phone Number": "01633 850819",
    "Name": "Lloyds Pharmacy",
    "Address": "Albany Street",
    "Postcode": "NP20 5NG"
  },
  {
    "Phone Number": "01633 256551",
    "Name": "LT Chemists",
    "Address": "335 Corporation Road",
    "Postcode": "NP19 0FN"
  },
  {
    "Phone Number": "01633 282084",
    "Name": "LT Chemists",
    "Address": "Pontfaen Road",
    "Postcode": "NP19 4NW"
  },
  {
    "Phone Number": "01633 821772",
    "Name": "Malpas Pharmacy",
    "Address": "361 Malpas Rd",
    "Postcode": "NP20 6WB"
  },
  {
    "Phone Number": "01633 244757",
    "Name": "Martin Davies Chemists",
    "Address": "199 Caerleon Road",
    "Postcode": "NP19 7HA"
  },
  {
    "Phone Number": "01633 244026",
    "Name": "Mayberry Pharmacy",
    "Address": "103 Durham Road",
    "Postcode": "NP19 7DP"
  },
  {
    "Phone Number": "01633 264599",
    "Name": "Pearns Pharmacy Ltd",
    "Address": "51 Gaer Road",
    "Postcode": "NP20 3GY"
  },
  {
    "Phone Number": "01633 253516",
    "Name": "Pill Pharmacy",
    "Address": "44 Commercial Road",
    "Postcode": "NP20 2PB"
  },
  {
    "Phone Number": "01633 252313",
    "Name": "Superdrug Stores PLC",
    "Address": "147 Commercial Street",
    "Postcode": "NP20 1LN"
  },
  {
    "Phone Number": "01633 591002",
    "Name": "Tesco Instore Pharmacy",
    "Address": "191 Cardiff Road",
    "Postcode": "NP20 3BA"
  },
  {
    "Phone Number": "01633 412433",
    "Name": "Tower Pharmacy Ltd",
    "Address": "1 Birch Grove Stores",
    "Postcode": "NP18 2HW"
  },
  {
    "Phone Number": "01633 277377",
    "Name": "Tower Pharmacy Ltd",
    "Address": "5 Aberthaw Rise",
    "Postcode": "NP19 9PT"
  },
  {
    "Phone Number": "01633 277460",
    "Name": "W E Giles and Sons Ltd",
    "Address": "432  Chepstow Road",
    "Postcode": "NP19 8JG"
  },
  {
    "Phone Number": "01633 855549",
    "Name": "Watkin Davies Ltd",
    "Address": "Bettws",
    "Postcode": "NP20 7TN"
  },
  {
    "Phone Number": "01633 258576",
    "Name": "Well Pharmacy",
    "Address": "175 Caerleon Rd",
    "Postcode": "NP19 7FX"
  },
  {
    "Phone Number": "01633 271497",
    "Name": "Well Pharmacy",
    "Address": "262 Chepstow Road",
    "Postcode": "NP19 8NL"
  },
  {
    "Phone Number": "01633 266632",
    "Name": "Well Pharmacy",
    "Address": "4 Clytha Park Road",
    "Postcode": "NP20 4NZ"
  },
  {
    "Phone Number": "01633 251236",
    "Name": "Well Pharmacy",
    "Address": "7-9 Kelvedon Street",
    "Postcode": "NP19 0DW"
  },
  {
    "Phone Number": "01633 893313",
    "Name": "Well Pharmacy",
    "Address": "Chapelwood",
    "Postcode": "NP10 9DU"
  },
  {
    "Phone Number": "01495 774012",
    "Name": "Abersychan Pharmacy",
    "Address": "14/15 Broad Street",
    "Postcode": "NP4  7BQ"
  },
  {
    "Phone Number": "01495 762727",
    "Name": "Boots the Chemists Ltd",
    "Address": "4 George Street",
    "Postcode": "NP4  6LR"
  },
  {
    "Phone Number": "01495 762291",
    "Name": "Health Plus Pharmacy",
    "Address": "Post Office",
    "Postcode": "NP4  6SU"
  },
  {
    "Phone Number": "01495 762502",
    "Name": "Lloyds Pharmacy",
    "Address": "124-125 Osbourne Road",
    "Postcode": "NP4  6LT"
  },
  {
    "Phone Number": "01495 763960",
    "Name": "Lloyds Pharmacy",
    "Address": "7 Windsor Rd",
    "Postcode": "NP4  5HY"
  },
  {
    "Phone Number": "01495 750095",
    "Name": "Mayberry Pharmacy",
    "Address": "21 Crane Street",
    "Postcode": "NP4  6LY"
  },
  {
    "Phone Number": "01495 763431",
    "Name": "Mayberry Pharmacy",
    "Address": "Trevethin",
    "Postcode": "NP4  8DH"
  },
  {
    "Phone Number": "01495 763504",
    "Name": "New Inn Pharmacy",
    "Address": "110 The Highway",
    "Postcode": "NP4  0PJ"
  },
  {
    "Phone Number": "01495 772711",
    "Name": "Well Pharmacy",
    "Address": "Stanley Road",
    "Postcode": "NP4  7LH"
  },
  {
    "Phone Number": "01291 422041",
    "Name": "Dudley Taylor Pharmacies Ltd",
    "Address": "Main Road",
    "Postcode": "NP26 5SA"
  },
  {
    "Phone Number": "01291 690737",
    "Name": "Raglan Pharmacy Ltd",
    "Address": "High Street",
    "Postcode": "NP15 2DY"
  },
  {
    "Phone Number": "01685 841351",
    "Name": "Complete Care (South Wales) Ltd",
    "Address": "11 Merchant Street",
    "Postcode": "CF81 9PD"
  },
  {
    "Phone Number": "01685 842969",
    "Name": "Complete Care (South Wales) Ltd",
    "Address": "51 High Street",
    "Postcode": "NP22 5LP"
  },
  {
    "Phone Number": "01685 840283",
    "Name": "Well Pharmacy",
    "Address": "Rhymney Integrated Resource Centre",
    "Postcode": "NP22 5PW"
  },
  {
    "Phone Number": "01633 612568",
    "Name": "Lloyds Chemists",
    "Address": "St Mary's Street",
    "Postcode": "NP11 6GJ"
  },
  {
    "Phone Number": "01633 612534",
    "Name": "Pearn's Pharmacies Ltd",
    "Address": "135 Commercial Street",
    "Postcode": "NP11 6AZ"
  },
  {
    "Phone Number": "01633 612366",
    "Name": "Well Pharmacy",
    "Address": "55-56 Tredegar Street",
    "Postcode": "NP11 6BW"
  },
  {
    "Phone Number": "01495 722532",
    "Name": "Boots the Chemist Ltd",
    "Address": "Gwent Shopping Centre",
    "Postcode": "NP22 3EJ"
  },
  {
    "Phone Number": "01495 722347",
    "Name": "Nelson Chemist",
    "Address": "4 Morgan St",
    "Postcode": "NP22 3NA"
  },
  {
    "Phone Number": "01495 722488",
    "Name": "Tredegar Health Centre Pharmacy",
    "Address": "Park Row",
    "Postcode": "NP22 3NG"
  },
  {
    "Phone Number": "01291 672040",
    "Name": "Usk Pharmacy",
    "Address": "59 Bridge Street",
    "Postcode": "NP15 1BQ"
  },
  {
    "Phone Number": "01443 813166",
    "Name": "Lloyds Chemists Retail Ltd",
    "Address": "12 Bedwlwyn Road",
    "Postcode": "CF82 7AD"
  },
  {
    "Phone Number": "01443 814857",
    "Name": "Lloyds Pharmacy",
    "Address": "5 Bedwlwyn Road",
    "Postcode": "CF82 7AA"
  }
] 
